[{"OBJECT_NAME":"TRANSPORTER-11 OBJECT A","OBJECT_ID":"2024-149A","EPOCH":"2026-03-09T17:54:54.302112","MEAN_MOTION":15.31141332,"ECCENTRICITY":0.00031096,"INCLINATION":97.378,"RA_OF_ASC_NODE":149.0949,"ARG_OF_PERICENTER":191.001,"MEAN_ANOMALY":169.1164,"EPHEMERIS_TYPE":0,"CLASSIFICATION_TYPE":"U","NORAD_CAT_ID":60468,"ELEMENT_SET_NO":999,"REV_AT_EPOCH":8683,"BSTAR":0.00036053677,"MEAN_MOTION_DOT":0.00010774,"MEAN_MOTION_DDOT":0},{"OBJECT_NAME":"STARLINK-35402","OBJECT_ID":"2025-235X","EPOCH":"2026-03-09T18:04:52.963392","MEAN_MOTION":15.30201306,"ECCENTRICITY":0.00010897,"INCLINATION":53.1595,"RA_OF_ASC_NODE":244.7968,"ARG_OF_PERICENTER":68.6108,"MEAN_ANOMALY":291.5009,"EPHEMERIS_TYPE":0,"CLASSIFICATION_TYPE":"U","NORAD_CAT_ID":66079,"ELEMENT_SET_NO":999,"REV_AT_EPOCH":2293,"BSTAR":0.00073535454,"MEAN_MOTION_DOT":0.00021484,"MEAN_MOTION_DDOT":0}]
