TRANSPORTER-11 OBJECT A 
1 60468U 24149A   26068.74646182  .00010774  00000+0  36054-3 0  9993
2 60468  97.3780 149.0949 0003110 191.0010 169.1164 15.31141332 86830
STARLINK-35402          
1 66079U 25235X   26068.75339078  .00021484  00000+0  73535-3 0  9993
2 66079  53.1595 244.7968 0001090  68.6108 291.5009 15.30201306 22930
